359P/LONEOS,e,10.2591,149.6879,200.2941,4.643274,0.0985071,0.32294958,306.1789,02/24.0/2026,2000,g 13.5,4.0
# From MPC191626
360P/WISE,e,24.1236,2.0194,354.4351,3.699714,0.1385007,0.49979461,70.3629,02/24.0/2026,2000,g 19.5,6.0
# From MPC191627
361P/Spacewatch,e,13.8951,203.2054,219.1755,4.932694,0.0899659,0.43936632,250.7693,02/24.0/2026,2000,g 12.0,4.0
# From MPC191627
363P/Lemmon,e,5.3939,146.7494,340.8002,3.575947,0.1457530,0.51862037,68.1719,02/24.0/2026,2000,g 17.5,4.0
# From MPC191627
364P/PANSTARRS,e,11.8240,45.6430,212.9882,2.904048,0.1991583,0.71577091,203.1528,02/24.0/2026,2000,g 17.0,2.0
# From MPC191627
365P/PANSTARRS,e,9.8443,86.2963,67.7708,3.156269,0.1757693,0.58185683,152.6163,02/24.0/2026,2000,g 17.0,4.0
# From MPC191627
366P/Spacewatch,e,8.8559,70.7560,152.9308,3.500273,0.1505051,0.34871277,58.5720,02/24.0/2026,2000,g 15.0,4.0
# From MPC191627
367P/Catalina,e,8.4579,58.7074,172.6023,3.511451,0.1497870,0.28021459,61.1978,02/24.0/2026,2000,g 17.5,2.0
# From MPC191627
368P/NEAT,e,15.4863,257.7844,119.0528,5.536860,0.0756500,0.62513798,205.7678,02/24.0/2026,2000,g 14.0,4.0
# From MPC191627
369P/Hill,e,10.3199,47.2642,13.2767,4.377776,0.1076028,0.55578225,288.6434,02/24.0/2026,2000,g 15.0,4.0
# From MPC191627
370P/NEAT,e,19.4165,55.0677,356.8275,6.442259,0.0602763,0.61472134,169.5935,02/24.0/2026,2000,g 13.0,4.0
# From MPC191627
371P/LINEAR-Skiff,e,17.3876,67.2234,308.6179,4.180517,0.1153079,0.47637653,310.8652,02/24.0/2026,2000,g 16.0,4.0
# From MPC191628
372P/McNaught,e,9.4989,325.7577,27.6466,4.514106,0.1027653,0.15098805,275.7599,02/24.0/2026,2000,g 13.5,4.0
# From MPC191628
373P/Rinner,e,13.7726,231.9482,221.1575,3.796131,0.1332577,0.39384344,334.2773,02/24.0/2026,2000,g 14.5,4.0
# From MPC191628
374P/Larson,e,10.7551,7.8268,51.6423,4.971620,0.0889114,0.46338429,230.8986,02/24.0/2026,2000,g 14.0,4.0
# From MPC191628
375P/Hill,e,17.3817,359.7931,119.5075,5.544805,0.0754874,0.66041918,197.6244,02/24.0/2026,2000,g 16.0,4.0
# From MPC191628
376P/LONEOS,e,1.1662,312.8550,285.2895,5.753570,0.0714164,0.51399181,168.3093,02/24.0/2026,2000,g 12.5,4.0
# From MPC191628
377P/Scotti,e,9.0472,225.8105,355.0132,6.693891,0.0569097,0.25189686,116.9064,02/24.0/2026,2000,g  9.5,4.0
# From MPC191628
378P/McNaught,e,19.1582,93.7925,193.2383,6.285454,0.0625459,0.46273424,123.1641,02/24.0/2026,2000,g 12.0,4.0
# From MPC191628
379P/Spacewatch,e,12.4297,183.5092,31.6167,3.484156,0.1515506,0.35000483,0.1649,02/24.0/2026,2000,g 15.0,4.0
# From MPC191628
380P/PANSTARRS,e,8.0425,127.6287,87.3231,4.455309,0.1048063,0.33259909,266.1609,02/24.0/2026,2000,g 12.5,4.0
# From MPC191628
381P/LINEAR-Spacewatch,e,28.3211,173.8345,173.3320,7.145152,0.0516044,0.68015209,121.0273,02/24.0/2026,2000,g 17.5,2.0
# From MPC191629
382P/Larson,e,8.3112,169.3413,162.9129,5.885573,0.0690273,0.26141641,109.6496,02/24.0/2026,2000,g  8.0,4.0
# From MPC191629
383P/Christensen,e,12.3202,207.8186,133.7402,3.549620,0.1473776,0.59841089,341.0475,02/24.0/2026,2000,g 18.0,4.0
# From MPC191629
384P/Kowalski,e,7.2838,354.1873,37.6945,2.897034,0.1998820,0.61615724,104.5283,02/24.0/2026,2000,g 19.5,4.0
# From MPC191629
385P/Hill,e,16.8164,356.9838,44.5161,4.289338,0.1109478,0.40162134,260.9017,02/24.0/2026,2000,g 13.0,4.0
# From MPC191629
386P/PANSTARRS,e,15.2489,134.9177,353.1378,4.047997,0.1210163,0.41770150,243.4895,02/24.0/2026,2000,g 14.5,4.0
# From MPC191629
387P/Boattini,e,8.9420,259.2109,162.8893,4.797758,0.0937878,0.73676222,221.3053,02/24.0/2026,2000,g 15.0,4.0
# From MPC191629
388P/Gibbs,e,23.8666,36.9999,42.3961,5.241072,0.0821436,0.61924479,197.4411,02/24.0/2026,2000,g 13.0,4.0
# From MPC191629
389P/SidingSpring,e,160.0747,218.8235,249.2722,5.628583,0.0738083,0.70601880,165.8397,02/24.0/2026,2000,g 16.0,4.0
# From MPC191629
390P/Gibbs,e,18.5131,152.1742,232.5953,5.819446,0.0702072,0.70621326,152.0290,02/24.0/2026,2000,g 12.0,4.0
# From MPC191629
391P/Kowalski,e,21.2514,124.7068,186.7793,4.693577,0.0969278,0.11832751,281.9189,02/24.0/2026,2000,g  8.0,4.0
# From MPC191630
392P/LINEAR,e,4.9249,24.7788,72.0131,6.143750,0.0647223,0.68388284,139.3141,02/24.0/2026,2000,g 14.5,4.0
# From MPC191630
393P/Spacewatch-Hill,e,16.7793,36.4047,329.1195,4.802574,0.0936468,0.11865107,216.4111,02/24.0/2026,2000,g 11.0,4.0
# From MPC191630
394P/PANSTARRS,e,8.5276,98.0828,54.5264,4.324682,0.1095905,0.36873542,249.3172,02/24.0/2026,2000,g 16.0,2.4
# From MPC191630
395P/Catalina-NEAT,e,3.5662,220.9281,100.8049,7.202800,0.0509861,0.41019641,74.7418,02/24.0/2026,2000,g 10.0,4.0
# From MPC191630
396P/Leonard,e,5.4444,136.6010,8.3301,6.798387,0.0556026,0.41731650,131.7535,02/24.0/2026,2000,g 12.0,4.0
# From MPC191630
397P/Lemmon,e,10.9171,8.1600,14.6224,3.832770,0.1313515,0.40432298,272.5990,02/24.0/2026,2000,g 12.0,4.0
# From MPC191630
398P/Boattini,e,11.0284,127.4071,320.3031,3.123449,0.1785469,0.58375903,336.0835,02/24.0/2026,2000,g 15.5,4.0
# From MPC191630
399P/PANSTARRS,e,13.3128,207.0993,214.4808,3.793882,0.1333762,0.44708759,231.6981,02/24.0/2026,2000,g 14.0,4.0
# From MPC191630
400P/PANSTARRS,e,10.9253,176.3280,238.9856,3.561818,0.1466211,0.40944703,269.4998,02/24.0/2026,2000,g 15.5,2.8
# From MPC191630
401P/McNaught,e,12.8026,359.9062,309.3020,5.775519,0.0710097,0.57826361,161.6859,02/24.0/2026,2000,g 12.5,4.0
# From MPC191631
402P/LINEAR,e,30.8290,123.0329,327.0843,7.045570,0.0527023,0.43987829,80.6735,02/24.0/2026,2000,g  8.0,4.0
# From MPC191631
403P/Catalina,e,12.3134,163.7070,277.8547,5.434008,0.0778079,0.50404935,154.4419,02/24.0/2026,2000,g 12.0,4.0
# From MPC191631
404P/Bressi,e,9.8037,260.0326,168.7931,4.715619,0.0962490,0.12372820,81.6329,02/24.0/2026,2000,g 10.0,4.0
# From MPC191631
405P/Lemmon,e,9.3748,3.2001,112.3180,3.603008,0.1441140,0.69030211,271.7195,02/24.0/2026,2000,g 17.5,4.0
# From MPC191631
406P/Gibbs,e,1.2099,11.4929,352.4325,3.580208,0.1454929,0.54080489,289.2901,02/24.0/2026,2000,g 17.0,4.0
# From MPC191631
407P/PANSTARRS-Fuls,e,4.8722,80.2361,92.9721,3.494807,0.1508583,0.37524024,337.1589,02/24.0/2026,2000,g 14.0,4.0
# From MPC191631
408P/Novichonok-Gerke,e,19.3471,189.4516,226.7434,4.747179,0.0952907,0.26809982,117.8829,02/24.0/2026,2000,g 11.0,4.0
# From MPC191631
409P/LONEOS-Hill,e,17.1563,143.6393,15.0402,6.032458,0.0665216,0.71048530,123.1800,02/24.0/2026,2000,g 14.0,4.0
# From MPC191631
410P/NEAT-LINEAR,e,9.3889,139.8890,313.3750,6.657269,0.0573799,0.51158174,97.8365,02/24.0/2026,2000,g 12.5,4.0
# From MPC191631
411P/Christensen,e,12.3862,77.6453,46.5960,5.812297,0.0703368,0.58194552,130.4479,02/24.0/2026,2000,g 13.5,4.0
# From MPC191632
412P/WISE,e,8.9282,0.8218,155.8204,3.113337,0.1794175,0.47913385,342.8571,02/24.0/2026,2000,g 17.0,4.0
# From MPC191632
413P/Larson,e,15.9504,38.9353,186.6690,3.737584,0.1364010,0.41737393,230.1378,02/24.0/2026,2000,g 14.0,4.0
# From MPC191632
414P/STEREO,e,23.4065,257.8153,210.7131,2.792465,0.2112139,0.81228309,31.8270,02/24.0/2026,2000,g 19.0,4.0
# From MPC191632
415P/Tenagra,e,31.8163,160.2579,345.9394,4.107084,0.1184142,0.19578395,217.2221,02/24.0/2026,2000,g 12.0,4.0
# From MPC191632
416P/Scotti,e,3.3644,355.7210,134.4898,4.005602,0.1229426,0.45568166,225.2709,02/24.0/2026,2000,g 15.5,4.0
# From MPC191632
417P/NEOWISE,e,11.3403,95.2663,142.0890,3.385471,0.1582251,0.53607664,288.6446,02/24.0/2026,2000,g 16.5,4.0
# From MPC191632
418P/LINEAR,e,5.7869,277.2531,307.6580,5.087413,0.0858931,0.66427042,136.7001,02/24.0/2026,2000,g 13.0,4.0
# From MPC191632
419P/PANSTARRS,e,2.7908,40.3601,187.6964,3.539025,0.1480398,0.27223441,235.2268,02/24.0/2026,2000,g 12.5,4.0
# From MPC191632
420P/Hill,e,14.5320,173.3145,156.4035,5.471148,0.0770170,0.49479313,106.2836,02/24.0/2026,2000,g 11.5,4.0
# From MPC191632
421P/McNaught,e,10.0742,55.3022,259.8375,5.073475,0.0862474,0.67441789,160.3152,02/24.0/2026,2000,g 14.0,4.0
# From MPC191633
422P/Christensen,e,39.5799,36.0077,304.7227,6.271413,0.0627561,0.50533251,94.5250,02/24.0/2026,2000,g 11.0,4.0
# From MPC191633
423P/Lemmon,e,8.3400,33.2990,81.1774,6.185527,0.0640677,0.12277063,103.0516,02/24.0/2026,2000,g  8.0,4.0
# From MPC191633
424P/LaSagra,e,8.6816,51.1959,312.5697,4.421749,0.1060017,0.69003373,167.2491,02/24.0/2026,2000,g 17.0,4.0
# From MPC191633
425P/Kowalski,e,16.4068,210.0931,201.0281,6.354235,0.0615331,0.54335661,99.5244,02/24.0/2026,2000,g 12.0,4.0
# From MPC191633
426P/PANSTARRS,e,17.7840,280.3955,118.3876,3.186209,0.1732977,0.16083577,155.6100,02/24.0/2026,2000,g 13.5,4.0
# From MPC191633
427P/ATLAS,e,11.8650,252.3249,99.6158,3.163551,0.1751628,0.31520189,188.1096,02/24.0/2026,2000,g 14.0,4.0
# From MPC191633
428P/Gibbs,e,8.5024,299.3051,36.8736,3.489377,0.1512106,0.51807455,264.4433,02/24.0/2026,2000,g 15.0,4.0
# From MPC191633
429P/LINEAR-Hill,e,7.5140,321.9969,75.7535,3.556560,0.1469464,0.49053148,222.4967,02/24.0/2026,2000,g 15.5,4.0
# From MPC191633
430P/Scotti,e,4.4762,54.6362,94.4862,3.102532,0.1803556,0.50050019,278.4082,02/24.0/2026,2000,g 16.5,4.0
# From MPC191633
431P/Scotti,e,22.3732,202.8277,200.0150,3.477584,0.1519804,0.47708134,223.6668,02/24.0/2026,2000,g 14.0,4.0
# From MPC191634
432P/PANSTARRS,e,10.0667,239.1304,105.2251,3.038884,0.1860513,0.24071858,305.2351,02/24.0/2026,2000,g 17.0,4.0
# From MPC191634
434P/Tenagra,e,6.3365,288.9090,128.4832,4.137148,0.1171258,0.27397832,185.1866,02/24.0/2026,2000,g 13.0,4.0
# From MPC191634
435P/PANSTARRS,e,18.8745,98.5238,244.1738,3.022175,0.1875965,0.31745723,314.1112,02/24.0/2026,2000,g 17.0,4.0
# From MPC191634
436P/Garradd,e,20.1995,87.1595,282.7664,5.937047,0.0681316,0.66870636,104.9145,02/24.0/2026,2000,g 14.5,4.0
# From MPC191634
437P/Lemmon-PANSTARRS,e,3.6884,245.8424,207.1422,4.570642,0.1008645,0.25488583,129.4509,02/24.0/2026,2000,g 13.0,4.0
# From MPC191634
438P/Christensen,e,8.2806,260.1097,58.9440,3.853782,0.1302787,0.41409124,280.7867,02/24.0/2026,2000,g 14.5,4.0
# From MPC191634
439P/LINEAR,e,7.1116,56.4008,342.1415,3.492315,0.1510198,0.46883309,248.0956,02/24.0/2026,2000,g 13.5,4.0
# From MPC191634
